{"type": "FeatureCollection", "features": [ {"type": "Feature", "properties": {"norad_id": 66530, "name": "STARLINK-35961", "group": "last-30-days", "lat": -23.58527252315553, "lon": 54.142842190241815, "alt_km": 390.89616928663327, "timestamp": "2025-12-07T22:37:41.857060+00:00", "meta": {"OBJECT_NAME": "STARLINK-35961", "OBJECT_ID": "2025-265Q", "EPOCH": "2025-12-07T06:00:04.999968", "MEAN_MOTION": 15.62235563, "ECCENTRICITY": 0.0001485, "INCLINATION": 43.0006, "RA_OF_ASC_NODE": 86.1955, "ARG_OF_PERICENTER": 276.1955, "MEAN_ANOMALY": 110.6063, "EPHEMERIS_TYPE": 0, "CLASSIFICATION_TYPE": "U", "NORAD_CAT_ID": 66530, "ELEMENT_SET_NO": 999, "REV_AT_EPOCH": 411, "BSTAR": -0.024302545, "MEAN_MOTION_DOT": -0.01941845, "MEAN_MOTION_DDOT": 0}, "tle": {"line1": "1 66530U 25265Q   25341.25005787 -.01941845  00000+0 -24303-1 0  9995", "line2": "2 66530  43.0006  86.1955 0001485 276.1955 110.6063 15.62235563  4113"}}, "geometry": {"type": "Point", "coordinates": [54.142842190241815, -23.58527252315553]}}, {"type": "Feature", "properties": {"norad_id": 66531, "name": "STARLINK-35960", "group": "last-30-days", "lat": -22.42248521803391, "lon": 55.79225743345767, "alt_km": 390.8863595817993, "timestamp": "2025-12-07T22:37:41.857072+00:00", "meta": {"OBJECT_NAME": "STARLINK-35960", "OBJECT_ID": "2025-265R", "EPOCH": "2025-12-07T06:00:04.999968", "MEAN_MOTION": 15.62252392, "ECCENTRICITY": 0.00014715, "INCLINATION": 43.0007, "RA_OF_ASC_NODE": 86.1902, "ARG_OF_PERICENTER": 274.747, "MEAN_ANOMALY": 113.956, "EPHEMERIS_TYPE": 0, "CLASSIFICATION_TYPE": "U", "NORAD_CAT_ID": 66531, "ELEMENT_SET_NO": 999, "REV_AT_EPOCH": 411, "BSTAR": -0.024468754, "MEAN_MOTION_DOT": -0.01954666, "MEAN_MOTION_DDOT": 0}, "tle": {"line1": "1 66531U 25265R   25341.25005787 -.01954666  00000+0 -24469-1 0  9994", "line2": "2 66531  43.0007  86.1902 0001471 274.7470 113.9560 15.62252392  4115"}}, "geometry": {"type": "Point", "coordinates": [55.79225743345767, -22.42248521803391]}}, {"type": "Feature", "properties": {"norad_id": 66532, "name": "STARLINK-35914", "group": "last-30-days", "lat": -21.24538828126054, "lon": 57.41107253734069, "alt_km": 390.7608980179966, "timestamp": "2025-12-07T22:37:41.857082+00:00", "meta": {"OBJECT_NAME": "STARLINK-35914", "OBJECT_ID": "2025-265S", "EPOCH": "2025-12-07T06:00:04.999968", "MEAN_MOTION": 15.62249048, "ECCENTRICITY": 0.00014903, "INCLINATION": 43.0003, "RA_OF_ASC_NODE": 86.1855, "ARG_OF_PERICENTER": 277.4505, "MEAN_ANOMALY": 113.174, "EPHEMERIS_TYPE": 0, "CLASSIFICATION_TYPE": "U", "NORAD_CAT_ID": 66532, "ELEMENT_SET_NO": 999, "REV_AT_EPOCH": 411, "BSTAR": -0.024466534, "MEAN_MOTION_DOT": -0.01954297, "MEAN_MOTION_DDOT": 0}, "tle": {"line1": "1 66532U 25265S   25341.25005787 -.01954297  00000+0 -24467-1 0  9993", "line2": "2 66532  43.0003  86.1855 0001490 277.4505 113.1740 15.62249048  4115"}}, "geometry": {"type": "Point", "coordinates": [57.41107253734069, -21.24538828126054]}}, {"type": "Feature", "properties": {"norad_id": 66533, "name": "STARLINK-35707", "group": "last-30-days", "lat": -20.052047007310204, "lon": 59.00565049931466, "alt_km": 390.6274723296892, "timestamp": "2025-12-07T22:37:41.857092+00:00", "meta": {"OBJECT_NAME": "STARLINK-35707", "OBJECT_ID": "2025-265T", "EPOCH": "2025-12-07T06:00:04.999968", "MEAN_MOTION": 15.62254848, "ECCENTRICITY": 0.00015309, "INCLINATION": 43.0001, "RA_OF_ASC_NODE": 86.181, "ARG_OF_PERICENTER": 279.7597, "MEAN_ANOMALY": 112.7759, "EPHEMERIS_TYPE": 0, "CLASSIFICATION_TYPE": "U", "NORAD_CAT_ID": 66533, "ELEMENT_SET_NO": 999, "REV_AT_EPOCH": 411, "BSTAR": -0.024532522, "MEAN_MOTION_DOT": -0.01959359, "MEAN_MOTION_DDOT": 0}, "tle": {"line1": "1 66533U 25265T   25341.25005787 -.01959359  00000+0 -24533-1 0  9992", "line2": "2 66533  43.0001  86.1810 0001530 279.7597 112.7759 15.62254848  4115"}}, "geometry": {"type": "Point", "coordinates": [59.00565049931466, -20.052047007310204]}}, {"type": "Feature", "properties": {"norad_id": 66534, "name": "STARLINK-35976", "group": "last-30-days", "lat": -18.843609375941035, "lon": 60.57789790623886, "alt_km": 390.53715292506695, "timestamp": "2025-12-07T22:37:41.857102+00:00", "meta": {"OBJECT_NAME": "STARLINK-35976", "OBJECT_ID": "2025-265U", "EPOCH": "2025-12-07T06:00:04.999968", "MEAN_MOTION": 15.62253127, "ECCENTRICITY": 0.00015244, "INCLINATION": 43.0006, "RA_OF_ASC_NODE": 86.1766, "ARG_OF_PERICENTER": 280.7323, "MEAN_ANOMALY": 113.7224, "EPHEMERIS_TYPE": 0, "CLASSIFICATION_TYPE": "U", "NORAD_CAT_ID": 66534, "ELEMENT_SET_NO": 999, "REV_AT_EPOCH": 411, "BSTAR": -0.02451911, "MEAN_MOTION_DOT": -0.01958294, "MEAN_MOTION_DDOT": 0}, "tle": {"line1": "1 66534U 25265U   25341.25005787 -.01958294  00000+0 -24519-1 0  9994", "line2": "2 66534  43.0006  86.1766 0001524 280.7323 113.7224 15.62253127  4110"}}, "geometry": {"type": "Point", "coordinates": [60.57789790623886, -18.843609375941035]}}, {"type": "Feature", "properties": {"norad_id": 66535, "name": "STARLINK-35514", "group": "last-30-days", "lat": -17.623779080908978, "lon": 62.12442451195928, "alt_km": 390.50345201666187, "timestamp": "2025-12-07T22:37:41.857115+00:00", "meta": {"OBJECT_NAME": "STARLINK-35514", "OBJECT_ID": "2025-265V", "EPOCH": "2025-12-07T06:00:04.999968", "MEAN_MOTION": 15.62255594, "ECCENTRICITY": 0.0001506, "INCLINATION": 43.0007, "RA_OF_ASC_NODE": 86.1716, "ARG_OF_PERICENTER": 280.0486, "MEAN_ANOMALY": 116.3244, "EPHEMERIS_TYPE": 0, "CLASSIFICATION_TYPE": "U", "NORAD_CAT_ID": 66535, "ELEMENT_SET_NO": 999, "REV_AT_EPOCH": 411, "BSTAR": -0.024591969, "MEAN_MOTION_DOT": -0.01963566, "MEAN_MOTION_DDOT": 0}, "tle": {"line1": "1 66535U 25265V   25341.25005787 -.01963566  00000+0 -24592-1 0  9994", "line2": "2 66535  43.0007  86.1716 0001506 280.0486 116.3244 15.62255594  4111"}}, "geometry": {"type": "Point", "coordinates": [62.12442451195928, -17.623779080908978]}}, {"type": "Feature", "properties": {"norad_id": 66536, "name": "STARLINK-35640", "group": "last-30-days", "lat": -16.38682961040647, "lon": 63.656559155758025, "alt_km": 390.40378292748574, "timestamp": "2025-12-07T22:37:41.857125+00:00", "meta": {"OBJECT_NAME": "STARLINK-35640", "OBJECT_ID": "2025-265W", "EPOCH": "2025-12-07T06:00:04.999968", "MEAN_MOTION": 15.6225065, "ECCENTRICITY": 0.0001483, "INCLINATION": 43.0006, "RA_OF_ASC_NODE": 86.167, "ARG_OF_PERICENTER": 280.4226, "MEAN_ANOMALY": 117.8678, "EPHEMERIS_TYPE": 0, "CLASSIFICATION_TYPE": "U", "NORAD_CAT_ID": 66536, "ELEMENT_SET_NO": 999, "REV_AT_EPOCH": 409, "BSTAR": -0.024481809, "MEAN_MOTION_DOT": -0.01955474, "MEAN_MOTION_DDOT": 0}, "tle": {"line1": "1 66536U 25265W   25341.25005787 -.01955474  00000+0 -24482-1 0  9992", "line2": "2 66536  43.0006  86.1670 0001483 280.4226 117.8678 15.62250650  4092"}}, "geometry": {"type": "Point", "coordinates": [63.656559155758025, -16.38682961040647]}}, {"type": "Feature", "properties": {"norad_id": 66537, "name": "STARLINK-35582", "group": "last-30-days", "lat": -15.140653138846156, "lon": 65.1671549471327, "alt_km": 390.3420777403453, "timestamp": "2025-12-07T22:37:41.857139+00:00", "meta": {"OBJECT_NAME": "STARLINK-35582", "OBJECT_ID": "2025-265X", "EPOCH": "2025-12-07T06:00:04.999968", "MEAN_MOTION": 15.6225237, "ECCENTRICITY": 0.00015262, "INCLINATION": 43.0009, "RA_OF_ASC_NODE": 86.1622, "ARG_OF_PERICENTER": 278.7539, "MEAN_ANOMALY": 121.4518, "EPHEMERIS_TYPE": 0, "CLASSIFICATION_TYPE": "U", "NORAD_CAT_ID": 66537, "ELEMENT_SET_NO": 999, "REV_AT_EPOCH": 411, "BSTAR": -0.024492469, "MEAN_MOTION_DOT": -0.01956371, "MEAN_MOTION_DDOT": 0}, "tle": {"line1": "1 66537U 25265X   25341.25005787 -.01956371  00000+0 -24492-1 0  9991", "line2": "2 66537  43.0009  86.1622 0001526 278.7539 121.4518 15.62252370  4116"}}, "geometry": {"type": "Point", "coordinates": [65.1671549471327, -15.140653138846156]}}, {"type": "Feature", "properties": {"norad_id": 66538, "name": "STARLINK-35577", "group": "last-30-days", "lat": -13.886867020148543, "lon": 66.65645656676693, "alt_km": 390.2495777298627, "timestamp": "2025-12-07T22:37:41.857151+00:00", "meta": {"OBJECT_NAME": "STARLINK-35577", "OBJECT_ID": "2025-265Y", "EPOCH": "2025-12-07T06:00:04.999968", "MEAN_MOTION": 15.6225631, "ECCENTRICITY": 0.00015241, "INCLINATION": 43.0011, "RA_OF_ASC_NODE": 86.1568, "ARG_OF_PERICENTER": 279.4302, "MEAN_ANOMALY": 122.6902, "EPHEMERIS_TYPE": 0, "CLASSIFICATION_TYPE": "U", "NORAD_CAT_ID": 66538, "ELEMENT_SET_NO": 999, "REV_AT_EPOCH": 411, "BSTAR": -0.024551794, "MEAN_MOTION_DOT": -0.01960806, "MEAN_MOTION_DDOT": 0}, "tle": {"line1": "1 66538U 25265Y   25341.25005787 -.01960806  00000+0 -24552-1 0  9997", "line2": "2 66538  43.0011  86.1568 0001524 279.4302 122.6902 15.62256310  4111"}}, "geometry": {"type": "Point", "coordinates": [66.65645656676693, -13.886867020148543]}}, {"type": "Feature", "properties": {"norad_id": 66539, "name": "STARLINK-35697", "group": "last-30-days", "lat": -12.623059384925728, "lon": 68.13088106680107, "alt_km": 390.2512748792742, "timestamp": "2025-12-07T22:37:41.857184+00:00", "meta": {"OBJECT_NAME": "STARLINK-35697", "OBJECT_ID": "2025-265Z", "EPOCH": "2025-12-07T06:00:04.999968", "MEAN_MOTION": 15.62254325, "ECCENTRICITY": 0.00014499, "INCLINATION": 43.0009, "RA_OF_ASC_NODE": 86.1517, "ARG_OF_PERICENTER": 277.2804, "MEAN_ANOMALY": 126.7607, "EPHEMERIS_TYPE": 0, "CLASSIFICATION_TYPE": "U", "NORAD_CAT_ID": 66539, "ELEMENT_SET_NO": 999, "REV_AT_EPOCH": 411, "BSTAR": -0.02454908, "MEAN_MOTION_DOT": -0.01960426, "MEAN_MOTION_DDOT": 0}, "tle": {"line1": "1 66539U 25265Z   25341.25005787 -.01960426  00000+0 -24549-1 0  9992", "line2": "2 66539  43.0009  86.1517 0001449 277.2804 126.7607 15.62254325  4113"}}, "geometry": {"type": "Point", "coordinates": [68.13088106680107, -12.623059384925728]}}]}